[{"OBJECT_NAME":"ONEWEB-0320","OBJECT_ID":"2021-083E","EPOCH":"2026-03-30T18:50:31.620480","MEAN_MOTION":13.18134148,"ECCENTRICITY":0.0001748,"INCLINATION":87.9234,"RA_OF_ASC_NODE":351.0512,"ARG_OF_PERICENTER":78.0917,"MEAN_ANOMALY":282.0411,"EPHEMERIS_TYPE":0,"CLASSIFICATION_TYPE":"U","NORAD_CAT_ID":49190,"ELEMENT_SET_NO":999,"REV_AT_EPOCH":21964,"BSTAR":-6.237300000000001e-05,"MEAN_MOTION_DOT":-1.2e-07,"MEAN_MOTION_DDOT":0.0},{"OBJECT_NAME":"ONEWEB-0321","OBJECT_ID":"2021-083F","EPOCH":"2026-03-30T19:01:24.954816","MEAN_MOTION":13.20771855,"ECCENTRICITY":0.000202,"INCLINATION":87.9145,"RA_OF_ASC_NODE":290.0884,"ARG_OF_PERICENTER":86.6365,"MEAN_ANOMALY":273.4999,"EPHEMERIS_TYPE":0,"CLASSIFICATION_TYPE":"U","NORAD_CAT_ID":49191,"ELEMENT_SET_NO":999,"REV_AT_EPOCH":22648,"BSTAR":0.00012514,"MEAN_MOTION_DOT":6.4e-07,"MEAN_MOTION_DDOT":0.0},{"OBJECT_NAME":"ONEWEB-0322","OBJECT_ID":"2021-083G","EPOCH":"2026-03-30T22:06:14.640192","MEAN_MOTION":13.13468404,"ECCENTRICITY":0.0002131,"INCLINATION":87.9002,"RA_OF_ASC_NODE":335.8215,"ARG_OF_PERICENTER":86.4701,"MEAN_ANOMALY":273.6672,"EPHEMERIS_TYPE":0,"CLASSIFICATION_TYPE":"U","NORAD_CAT_ID":49192,"ELEMENT_SET_NO":999,"REV_AT_EPOCH":22064,"BSTAR":-3.0645e-05,"MEAN_MOTION_DOT":2e-08,"MEAN_MOTION_DDOT":0.0},{"OBJECT_NAME":"ONEWEB-0324","OBJECT_ID":"2021-083H","EPOCH":"2026-03-30T18:07:42.888000","MEAN_MOTION":13.18687735,"ECCENTRICITY":0.0001766,"INCLINATION":87.9243,"RA_OF_ASC_NODE":351.035,"ARG_OF_PERICENTER":73.7777,"MEAN_ANOMALY":286.3549,"EPHEMERIS_TYPE":0,"CLASSIFICATION_TYPE":"U","NORAD_CAT_ID":49193,"ELEMENT_SET_NO":999,"REV_AT_EPOCH":21966,"BSTAR":2.0824000000000003e-05,"MEAN_MOTION_DOT":2.1e-07,"MEAN_MOTION_DDOT":0.0},{"OBJECT_NAME":"ONEWEB-0325","OBJECT_ID":"2021-083J","EPOCH":"2026-03-30T18:12:27.780768","MEAN_MOTION":13.18688173,"ECCENTRICITY":0.0001778,"INCLINATION":87.9236,"RA_OF_ASC_NODE":351.0499,"ARG_OF_PERICENTER":81.2427,"MEAN_ANOMALY":278.8906,"EPHEMERIS_TYPE":0,"CLASSIFICATION_TYPE":"U","NORAD_CAT_ID":49194,"ELEMENT_SET_NO":999,"REV_AT_EPOCH":21967,"BSTAR":2.657e-05,"MEAN_MOTION_DOT":2.3e-07,"MEAN_MOTION_DDOT":0.0},{"OBJECT_NAME":"ONEWEB-0326","OBJECT_ID":"2021-083K","EPOCH":"2026-03-30T18:34:03.456768","MEAN_MOTION":13.18687912,"ECCENTRICITY":0.0001461,"INCLINATION":87.9244,"RA_OF_ASC_NODE":351.0379,"ARG_OF_PERICENTER":84.0333,"MEAN_ANOMALY":276.0965,"EPHEMERIS_TYPE":0,"CLASSIFICATION_TYPE":"U","NORAD_CAT_ID":49195,"ELEMENT_SET_NO":999,"REV_AT_EPOCH":21966,"BSTAR":-8.0348e-05,"MEAN_MOTION_DOT":-1.9e-07,"MEAN_MOTION_DDOT":0.0},{"OBJECT_NAME":"ONEWEB-0327","OBJECT_ID":"2021-083L","EPOCH":"2026-03-30T18:33:38.822400","MEAN_MOTION":13.18685923,"ECCENTRICITY":0.0001403,"INCLINATION":87.9237,"RA_OF_ASC_NODE":351.0488,"ARG_OF_PERICENTER":89.3322,"MEAN_ANOMALY":270.7971,"EPHEMERIS_TYPE":0,"CLASSIFICATION_TYPE":"U","NORAD_CAT_ID":49196,"ELEMENT_SET_NO":999,"REV_AT_EPOCH":21968,"BSTAR":-0.00010633,"MEAN_MOTION_DOT":-2.9e-07,"MEAN_MOTION_DDOT":0.0},{"OBJECT_NAME":"ONEWEB-0328","OBJECT_ID":"2021-083M","EPOCH":"2026-03-30T21:51:37.325952","MEAN_MOTION":13.13468649,"ECCENTRICITY":0.0001707,"INCLINATION":87.9019,"RA_OF_ASC_NODE":335.7866,"ARG_OF_PERICENTER":75.1475,"MEAN_ANOMALY":284.9843,"EPHEMERIS_TYPE":0,"CLASSIFICATION_TYPE":"U","NORAD_CAT_ID":49197,"ELEMENT_SET_NO":999,"REV_AT_EPOCH":22062,"BSTAR":0.00068175,"MEAN_MOTION_DOT":2.62e-06,"MEAN_MOTION_DDOT":0.0},{"OBJECT_NAME":"ONEWEB-0331","OBJECT_ID":"2021-083N","EPOCH":"2026-03-30T18:24:19.952640","MEAN_MOTION":13.1868855,"ECCENTRICITY":0.0001444,"INCLINATION":87.9245,"RA_OF_ASC_NODE":351.0329,"ARG_OF_PERICENTER":75.4186,"MEAN_ANOMALY":284.7106,"EPHEMERIS_TYPE":0,"CLASSIFICATION_TYPE":"U","NORAD_CAT_ID":49198,"ELEMENT_SET_NO":999,"REV_AT_EPOCH":21967,"BSTAR":-3.910100000000001e-06,"MEAN_MOTION_DOT":1.1e-07,"MEAN_MOTION_DDOT":0.0},{"OBJECT_NAME":"ONEWEB-0333","OBJECT_ID":"2021-083P","EPOCH":"2026-03-30T21:44:18.591072","MEAN_MOTION":13.1346898,"ECCENTRICITY":0.0001684,"INCLINATION":87.9004,"RA_OF_ASC_NODE":335.8226,"ARG_OF_PERICENTER":81.3534,"MEAN_ANOMALY":278.7786,"EPHEMERIS_TYPE":0,"CLASSIFICATION_TYPE":"U","NORAD_CAT_ID":49199,"ELEMENT_SET_NO":999,"REV_AT_EPOCH":22063,"BSTAR":0.0007861700000000001,"MEAN_MOTION_DOT":3e-06,"MEAN_MOTION_DDOT":0.0},{"OBJECT_NAME":"ONEWEB-0334","OBJECT_ID":"2021-083Q","EPOCH":"2026-03-30T19:26:25.719360","MEAN_MOTION":13.20771948,"ECCENTRICITY":0.0002655,"INCLINATION":87.9136,"RA_OF_ASC_NODE":290.101,"ARG_OF_PERICENTER":94.9799,"MEAN_ANOMALY":265.1638,"EPHEMERIS_TYPE":0,"CLASSIFICATION_TYPE":"U","NORAD_CAT_ID":49200,"ELEMENT_SET_NO":999,"REV_AT_EPOCH":22644,"BSTAR":0.00025727,"MEAN_MOTION_DOT":1.18e-06,"MEAN_MOTION_DDOT":0.0},{"OBJECT_NAME":"ONEWEB-0335","OBJECT_ID":"2021-083R","EPOCH":"2026-03-30T23:26:41.343360","MEAN_MOTION":13.13471572,"ECCENTRICITY":0.0001523,"INCLINATION":87.9008,"RA_OF_ASC_NODE":335.8036,"ARG_OF_PERICENTER":79.4917,"MEAN_ANOMALY":280.6383,"EPHEMERIS_TYPE":0,"CLASSIFICATION_TYPE":"U","NORAD_CAT_ID":49201,"ELEMENT_SET_NO":999,"REV_AT_EPOCH":22065,"BSTAR":0.0011306,"MEAN_MOTION_DOT":4.26e-06,"MEAN_MOTION_DDOT":0.0},{"OBJECT_NAME":"ONEWEB-0336","OBJECT_ID":"2021-083S","EPOCH":"2026-03-30T09:57:21.843360","MEAN_MOTION":13.13472131,"ECCENTRICITY":0.000133,"INCLINATION":87.9004,"RA_OF_ASC_NODE":335.9114,"ARG_OF_PERICENTER":71.8452,"MEAN_ANOMALY":288.2822,"EPHEMERIS_TYPE":0,"CLASSIFICATION_TYPE":"U","NORAD_CAT_ID":49202,"ELEMENT_SET_NO":999,"REV_AT_EPOCH":22057,"BSTAR":-0.00032603,"MEAN_MOTION_DOT":-1.06e-06,"MEAN_MOTION_DDOT":0.0},{"OBJECT_NAME":"ONEWEB-0337","OBJECT_ID":"2021-083T","EPOCH":"2026-03-30T17:30:36.385056","MEAN_MOTION":13.13471047,"ECCENTRICITY":0.0001663,"INCLINATION":87.9001,"RA_OF_ASC_NODE":335.8572,"ARG_OF_PERICENTER":74.2283,"MEAN_ANOMALY":285.903,"EPHEMERIS_TYPE":0,"CLASSIFICATION_TYPE":"U","NORAD_CAT_ID":49203,"ELEMENT_SET_NO":999,"REV_AT_EPOCH":22061,"BSTAR":0.00039091,"MEAN_MOTION_DOT":1.56e-06,"MEAN_MOTION_DDOT":0.0},{"OBJECT_NAME":"ONEWEB-0338","OBJECT_ID":"2021-083U","EPOCH":"2026-03-30T18:50:03.615648","MEAN_MOTION":13.20772075,"ECCENTRICITY":0.0002051,"INCLINATION":87.9136,"RA_OF_ASC_NODE":290.111,"ARG_OF_PERICENTER":91.8366,"MEAN_ANOMALY":268.3002,"EPHEMERIS_TYPE":0,"CLASSIFICATION_TYPE":"U","NORAD_CAT_ID":49204,"ELEMENT_SET_NO":999,"REV_AT_EPOCH":22646,"BSTAR":3.6053e-05,"MEAN_MOTION_DOT":2.8e-07,"MEAN_MOTION_DDOT":0.0},{"OBJECT_NAME":"ONEWEB-0339","OBJECT_ID":"2021-083V","EPOCH":"2026-03-30T23:12:02.833344","MEAN_MOTION":13.13472996,"ECCENTRICITY":0.0001982,"INCLINATION":87.9011,"RA_OF_ASC_NODE":335.8,"ARG_OF_PERICENTER":79.7502,"MEAN_ANOMALY":280.3851,"EPHEMERIS_TYPE":0,"CLASSIFICATION_TYPE":"U","NORAD_CAT_ID":49205,"ELEMENT_SET_NO":999,"REV_AT_EPOCH":22062,"BSTAR":0.0007330600000000001,"MEAN_MOTION_DOT":2.8e-06,"MEAN_MOTION_DDOT":0.0}]