ONEWEB-0320             
1 49190U 21083E   26089.78508820 -.00000012  00000+0 -62373-4 0  9999
2 49190  87.9234 351.0512 0001748  78.0917 282.0411 13.18134148219641
ONEWEB-0321             
1 49191U 21083F   26089.79264994  .00000064  00000+0  12514-3 0  9998
2 49191  87.9145 290.0884 0002020  86.6365 273.4999 13.20771855226483
ONEWEB-0322             
1 49192U 21083G   26089.92100278  .00000002  00000+0 -30645-4 0  9997
2 49192  87.9002 335.8215 0002131  86.4701 273.6672 13.13468404220644
ONEWEB-0324             
1 49193U 21083H   26089.75535750  .00000021  00000+0  20824-4 0  9994
2 49193  87.9243 351.0350 0001766  73.7777 286.3549 13.18687735219666
ONEWEB-0325             
1 49194U 21083J   26089.75865487  .00000023  00000+0  26570-4 0  9994
2 49194  87.9236 351.0499 0001778  81.2427 278.8906 13.18688173219673
ONEWEB-0326             
1 49195U 21083K   26089.77365112 -.00000019  00000+0 -80348-4 0  9997
2 49195  87.9244 351.0379 0001461  84.0333 276.0965 13.18687912219660
ONEWEB-0327             
1 49196U 21083L   26089.77336600 -.00000029  00000+0 -10633-3 0  9998
2 49196  87.9237 351.0488 0001403  89.3322 270.7971 13.18685923219686
ONEWEB-0328             
1 49197U 21083M   26089.91084868  .00000262  00000+0  68175-3 0  9992
2 49197  87.9019 335.7866 0001707  75.1475 284.9843 13.13468649220623
ONEWEB-0331             
1 49198U 21083N   26089.76689760  .00000011  00000+0 -39101-5 0  9990
2 49198  87.9245 351.0329 0001444  75.4186 284.7106 13.18688550219673
ONEWEB-0333             
1 49199U 21083P   26089.90577073  .00000300  00000+0  78617-3 0  9993
2 49199  87.9004 335.8226 0001684  81.3534 278.7786 13.13468980220635
ONEWEB-0334             
1 49200U 21083Q   26089.81001990  .00000118  00000+0  25727-3 0  9997
2 49200  87.9136 290.1010 0002655  94.9799 265.1638 13.20771948226440
ONEWEB-0335             
1 49201U 21083R   26089.97686740  .00000426  00000+0  11306-2 0  9996
2 49201  87.9008 335.8036 0001523  79.4917 280.6383 13.13471572220655
ONEWEB-0336             
1 49202U 21083S   26089.41483615 -.00000106  00000+0 -32603-3 0  9993
2 49202  87.9004 335.9114 0001330  71.8452 288.2822 13.13472131220571
ONEWEB-0337             
1 49203U 21083T   26089.72958779  .00000156  00000+0  39091-3 0  9997
2 49203  87.9001 335.8572 0001663  74.2283 285.9030 13.13471047220619
ONEWEB-0338             
1 49204U 21083U   26089.78476407  .00000028  00000+0  36053-4 0  9991
2 49204  87.9136 290.1110 0002051  91.8366 268.3002 13.20772075226465
ONEWEB-0339             
1 49205U 21083V   26089.96669946  .00000280  00000+0  73306-3 0  9995
2 49205  87.9011 335.8000 0001982  79.7502 280.3851 13.13472996220621
